STARLINK-30442          
1 57868U 23144E   26068.01118689 -.00004271  00000+0 -14583-3 0  9993
2 57868  42.9990 288.9921 0001201 271.5467  88.5247 15.27566283137497
TRANSPORTER-12 OBJECT BT
1 62674U 25009BT  26068.71416991  .00013824  00000+0  51029-3 0  9998
2 62674  97.4094 151.5992 0003682 313.5044  46.5889 15.27872239121360
