[{"OBJECT_NAME":"STARLINK-30442","OBJECT_ID":"2023-144E","EPOCH":"2026-03-09T00:16:06.547296","MEAN_MOTION":15.27566283,"ECCENTRICITY":0.0001201,"INCLINATION":42.999,"RA_OF_ASC_NODE":288.9921,"ARG_OF_PERICENTER":271.5467,"MEAN_ANOMALY":88.5247,"EPHEMERIS_TYPE":0,"CLASSIFICATION_TYPE":"U","NORAD_CAT_ID":57868,"ELEMENT_SET_NO":999,"REV_AT_EPOCH":13749,"BSTAR":-0.00014582769,"MEAN_MOTION_DOT":-4.271e-5,"MEAN_MOTION_DDOT":0},{"OBJECT_NAME":"TRANSPORTER-12 OBJECT BT","OBJECT_ID":"2025-009BT","EPOCH":"2026-03-09T17:08:24.281088","MEAN_MOTION":15.27872239,"ECCENTRICITY":0.00036816,"INCLINATION":97.4094,"RA_OF_ASC_NODE":151.5992,"ARG_OF_PERICENTER":313.5044,"MEAN_ANOMALY":46.5889,"EPHEMERIS_TYPE":0,"CLASSIFICATION_TYPE":"U","NORAD_CAT_ID":62674,"ELEMENT_SET_NO":999,"REV_AT_EPOCH":12136,"BSTAR":0.000510288,"MEAN_MOTION_DOT":0.00013824,"MEAN_MOTION_DDOT":0}]
